CCSDS_OMM_VERS = 2.0
CREATION_DATE  = 
ORIGINATOR     = 

OBJECT_NAME    = STARLINK-35725
OBJECT_ID      = 2026-016E
CENTER_NAME    = EARTH
REF_FRAME      = TEME
TIME_SYSTEM    = UTC
MEAN_ELEMENT_THEORY = SGP/SGP4

EPOCH          = 2026-02-09T13:59:31.382304
MEAN_MOTION    = 15.80899543
ECCENTRICITY   = .00014933
INCLINATION    = 97.2843
RA_OF_ASC_NODE = 99.6041
ARG_OF_PERICENTER = 52.5871
MEAN_ANOMALY   = 307.5533

EPHEMERIS_TYPE = 0
CLASSIFICATION_TYPE = U
NORAD_CAT_ID   = 67565
ELEMENT_SET_NO = 999
REV_AT_EPOCH   = 237
BSTAR          = .1246828E-2
MEAN_MOTION_DOT = .246495E-2
MEAN_MOTION_DDOT = 0

CCSDS_OMM_VERS = 2.0
CREATION_DATE  = 
ORIGINATOR     = 

OBJECT_NAME    = STARLINK-36394
OBJECT_ID      = 2026-016F
CENTER_NAME    = EARTH
REF_FRAME      = TEME
TIME_SYSTEM    = UTC
MEAN_ELEMENT_THEORY = SGP/SGP4

EPOCH          = 2026-02-09T14:00:01.000224
MEAN_MOTION    = 15.80758410
ECCENTRICITY   = .0001256
INCLINATION    = 97.2791
RA_OF_ASC_NODE = 99.6116
ARG_OF_PERICENTER = 84.4814
MEAN_ANOMALY   = 300.0101

EPHEMERIS_TYPE = 0
CLASSIFICATION_TYPE = U
NORAD_CAT_ID   = 67566
ELEMENT_SET_NO = 999
REV_AT_EPOCH   = 363
BSTAR          = .78241396E-3
MEAN_MOTION_DOT = .151965E-2
MEAN_MOTION_DDOT = 0

CCSDS_OMM_VERS = 2.0
CREATION_DATE  = 
ORIGINATOR     = 

OBJECT_NAME    = STARLINK-36352
OBJECT_ID      = 2026-016G
CENTER_NAME    = EARTH
REF_FRAME      = TEME
TIME_SYSTEM    = UTC
MEAN_ELEMENT_THEORY = SGP/SGP4

EPOCH          = 2026-02-09T14:00:01.000224
MEAN_MOTION    = 15.80773192
ECCENTRICITY   = .00011552
INCLINATION    = 97.2789
RA_OF_ASC_NODE = 99.6083
ARG_OF_PERICENTER = 104.8707
MEAN_ANOMALY   = 272.8534

EPHEMERIS_TYPE = 0
CLASSIFICATION_TYPE = U
NORAD_CAT_ID   = 67567
ELEMENT_SET_NO = 999
REV_AT_EPOCH   = 353
BSTAR          = .61835477E-3
MEAN_MOTION_DOT = .119705E-2
MEAN_MOTION_DDOT = 0

CCSDS_OMM_VERS = 2.0
CREATION_DATE  = 
ORIGINATOR     = 

OBJECT_NAME    = STARLINK-36435
OBJECT_ID      = 2026-016H
CENTER_NAME    = EARTH
REF_FRAME      = TEME
TIME_SYSTEM    = UTC
MEAN_ELEMENT_THEORY = SGP/SGP4

EPOCH          = 2026-02-09T14:00:01.000224
MEAN_MOTION    = 15.80768504
ECCENTRICITY   = .00012764
INCLINATION    = 97.2790
RA_OF_ASC_NODE = 99.6138
ARG_OF_PERICENTER = 85.4239
MEAN_ANOMALY   = 305.0918

EPHEMERIS_TYPE = 0
CLASSIFICATION_TYPE = U
NORAD_CAT_ID   = 67568
ELEMENT_SET_NO = 999
REV_AT_EPOCH   = 353
BSTAR          = .66434782E-3
MEAN_MOTION_DOT = .128726E-2
MEAN_MOTION_DDOT = 0

CCSDS_OMM_VERS = 2.0
CREATION_DATE  = 
ORIGINATOR     = 

OBJECT_NAME    = STARLINK-36575
OBJECT_ID      = 2026-016J
CENTER_NAME    = EARTH
REF_FRAME      = TEME
TIME_SYSTEM    = UTC
MEAN_ELEMENT_THEORY = SGP/SGP4

EPOCH          = 2026-02-09T14:00:01.000224
MEAN_MOTION    = 15.80813559
ECCENTRICITY   = .0001097
INCLINATION    = 97.2845
RA_OF_ASC_NODE = 99.6185
ARG_OF_PERICENTER = 81.4346
MEAN_ANOMALY   = 315.9497

EPHEMERIS_TYPE = 0
CLASSIFICATION_TYPE = U
NORAD_CAT_ID   = 67569
ELEMENT_SET_NO = 999
REV_AT_EPOCH   = 353
BSTAR          = .15698263E-3
MEAN_MOTION_DOT = .30027E-3
MEAN_MOTION_DDOT = 0

CCSDS_OMM_VERS = 2.0
CREATION_DATE  = 
ORIGINATOR     = 

OBJECT_NAME    = STARLINK-36562
OBJECT_ID      = 2026-016K
CENTER_NAME    = EARTH
REF_FRAME      = TEME
TIME_SYSTEM    = UTC
MEAN_ELEMENT_THEORY = SGP/SGP4

EPOCH          = 2026-02-09T14:00:01.000224
MEAN_MOTION    = 15.80775219
ECCENTRICITY   = .00012551
INCLINATION    = 97.2848
RA_OF_ASC_NODE = 99.6210
ARG_OF_PERICENTER = 93.6316
MEAN_ANOMALY   = 308.9444

EPHEMERIS_TYPE = 0
CLASSIFICATION_TYPE = U
NORAD_CAT_ID   = 67570
ELEMENT_SET_NO = 999
REV_AT_EPOCH   = 353
BSTAR          = .66617252E-3
MEAN_MOTION_DOT = .129126E-2
MEAN_MOTION_DDOT = 0

CCSDS_OMM_VERS = 2.0
CREATION_DATE  = 
ORIGINATOR     = 

OBJECT_NAME    = STARLINK-36578
OBJECT_ID      = 2026-016L
CENTER_NAME    = EARTH
REF_FRAME      = TEME
TIME_SYSTEM    = UTC
MEAN_ELEMENT_THEORY = SGP/SGP4

EPOCH          = 2026-02-09T14:00:01.000224
MEAN_MOTION    = 15.77169055
ECCENTRICITY   = .00014802
INCLINATION    = 97.2846
RA_OF_ASC_NODE = 99.6208
ARG_OF_PERICENTER = 81.8903
MEAN_ANOMALY   = 321.0330

EPHEMERIS_TYPE = 0
CLASSIFICATION_TYPE = U
NORAD_CAT_ID   = 67571
ELEMENT_SET_NO = 999
REV_AT_EPOCH   = 351
BSTAR          = -.12764982E-1
MEAN_MOTION_DOT = -.1821823E-1
MEAN_MOTION_DDOT = 0

CCSDS_OMM_VERS = 2.0
CREATION_DATE  = 
ORIGINATOR     = 

OBJECT_NAME    = STARLINK-36350
OBJECT_ID      = 2026-016M
CENTER_NAME    = EARTH
REF_FRAME      = TEME
TIME_SYSTEM    = UTC
MEAN_ELEMENT_THEORY = SGP/SGP4

EPOCH          = 2026-02-09T14:00:01.000224
MEAN_MOTION    = 15.80754770
ECCENTRICITY   = .00012595
INCLINATION    = 97.2785
RA_OF_ASC_NODE = 99.6244
ARG_OF_PERICENTER = 104.1583
MEAN_ANOMALY   = 311.7784

EPHEMERIS_TYPE = 0
CLASSIFICATION_TYPE = U
NORAD_CAT_ID   = 67572
ELEMENT_SET_NO = 999
REV_AT_EPOCH   = 342
BSTAR          = .81650143E-3
MEAN_MOTION_DOT = .158689E-2
MEAN_MOTION_DDOT = 0

CCSDS_OMM_VERS = 2.0
CREATION_DATE  = 
ORIGINATOR     = 

OBJECT_NAME    = STARLINK-36588
OBJECT_ID      = 2026-016N
CENTER_NAME    = EARTH
REF_FRAME      = TEME
TIME_SYSTEM    = UTC
MEAN_ELEMENT_THEORY = SGP/SGP4

EPOCH          = 2026-02-09T14:00:01.000224
MEAN_MOTION    = 15.80567372
ECCENTRICITY   = .00013684
INCLINATION    = 97.2848
RA_OF_ASC_NODE = 99.6279
ARG_OF_PERICENTER = 77.3753
MEAN_ANOMALY   = 346.8877

EPHEMERIS_TYPE = 0
CLASSIFICATION_TYPE = U
NORAD_CAT_ID   = 67573
ELEMENT_SET_NO = 999
REV_AT_EPOCH   = 358
BSTAR          = -.11397111E-1
MEAN_MOTION_DOT = -.1888044E-1
MEAN_MOTION_DDOT = 0

CCSDS_OMM_VERS = 2.0
CREATION_DATE  = 
ORIGINATOR     = 

OBJECT_NAME    = STARLINK-36594
OBJECT_ID      = 2026-016P
CENTER_NAME    = EARTH
REF_FRAME      = TEME
TIME_SYSTEM    = UTC
MEAN_ELEMENT_THEORY = SGP/SGP4

EPOCH          = 2026-02-09T14:00:01.000224
MEAN_MOTION    = 15.80781632
ECCENTRICITY   = .00013121
INCLINATION    = 97.2849
RA_OF_ASC_NODE = 99.6302
ARG_OF_PERICENTER = 89.8153
MEAN_ANOMALY   = 339.5605

EPHEMERIS_TYPE = 0
CLASSIFICATION_TYPE = U
NORAD_CAT_ID   = 67574
ELEMENT_SET_NO = 999
REV_AT_EPOCH   = 358
BSTAR          = .56414026E-3
MEAN_MOTION_DOT = .109107E-2
MEAN_MOTION_DDOT = 0

CCSDS_OMM_VERS = 2.0
CREATION_DATE  = 
ORIGINATOR     = 

OBJECT_NAME    = STARLINK-36400
OBJECT_ID      = 2026-016Q
CENTER_NAME    = EARTH
REF_FRAME      = TEME
TIME_SYSTEM    = UTC
MEAN_ELEMENT_THEORY = SGP/SGP4

EPOCH          = 2026-02-09T14:00:01.000224
MEAN_MOTION    = 15.80760658
ECCENTRICITY   = .00013498
INCLINATION    = 97.2774
RA_OF_ASC_NODE = 99.6318
ARG_OF_PERICENTER = 94.9289
MEAN_ANOMALY   = 340.1094

EPHEMERIS_TYPE = 0
CLASSIFICATION_TYPE = U
NORAD_CAT_ID   = 67575
ELEMENT_SET_NO = 999
REV_AT_EPOCH   = 347
BSTAR          = .70705504E-3
MEAN_MOTION_DOT = .137094E-2
MEAN_MOTION_DDOT = 0

CCSDS_OMM_VERS = 2.0
CREATION_DATE  = 
ORIGINATOR     = 

OBJECT_NAME    = STARLINK-36591
OBJECT_ID      = 2026-016R
CENTER_NAME    = EARTH
REF_FRAME      = TEME
TIME_SYSTEM    = UTC
MEAN_ELEMENT_THEORY = SGP/SGP4

EPOCH          = 2026-02-09T14:00:01.000224
MEAN_MOTION    = 15.80774009
ECCENTRICITY   = .00013981
INCLINATION    = 97.2849
RA_OF_ASC_NODE = 99.6354
ARG_OF_PERICENTER = 100.3948
MEAN_ANOMALY   = 340.5374

EPHEMERIS_TYPE = 0
CLASSIFICATION_TYPE = U
NORAD_CAT_ID   = 67576
ELEMENT_SET_NO = 999
REV_AT_EPOCH   = 353
BSTAR          = .68301177E-3
MEAN_MOTION_DOT = .132437E-2
MEAN_MOTION_DDOT = 0

