STARLINK-35725          
1 67565U 26016E   26040.58300211  .00246495  00000+0  12468-2 0  9998
2 67565  97.2843  99.6041 0001493  52.5871 307.5533 15.80899543  2378
STARLINK-36394          
1 67566U 26016F   26040.58334491  .00151965  00000+0  78241-3 0  9995
2 67566  97.2791  99.6116 0001256  84.4814 300.0101 15.80758410  3638
STARLINK-36352          
1 67567U 26016G   26040.58334491  .00119705  00000+0  61835-3 0  9993
2 67567  97.2789  99.6083 0001155 104.8707 272.8534 15.80773192  3534
STARLINK-36435          
1 67568U 26016H   26040.58334491  .00128726  00000+0  66435-3 0  9998
2 67568  97.2790  99.6138 0001276  85.4239 305.0918 15.80768504  3532
STARLINK-36575          
1 67569U 26016J   26040.58334491  .00030027  00000+0  15698-3 0  9990
2 67569  97.2845  99.6185 0001097  81.4346 315.9497 15.80813559  3535
STARLINK-36562          
1 67570U 26016K   26040.58334491  .00129126  00000+0  66617-3 0  9998
2 67570  97.2848  99.6210 0001255  93.6316 308.9444 15.80775219  3531
STARLINK-36578          
1 67571U 26016L   26040.58334491 -.01821823  00000+0 -12765-1 0  9998
2 67571  97.2846  99.6208 0001480  81.8903 321.0330 15.77169055  3517
STARLINK-36350          
1 67572U 26016M   26040.58334491  .00158689  00000+0  81650-3 0  9990
2 67572  97.2785  99.6244 0001259 104.1583 311.7784 15.80754770  3424
STARLINK-36588          
1 67573U 26016N   26040.58334491 -.01888044  00000+0 -11397-1 0  9998
2 67573  97.2848  99.6279 0001368  77.3753 346.8877 15.80567372  3583
STARLINK-36594          
1 67574U 26016P   26040.58334491  .00109107  00000+0  56414-3 0  9993
2 67574  97.2849  99.6302 0001312  89.8153 339.5605 15.80781632  3588
STARLINK-36400          
1 67575U 26016Q   26040.58334491  .00137094  00000+0  70706-3 0  9990
2 67575  97.2774  99.6318 0001349  94.9289 340.1094 15.80760658  3473
STARLINK-36591          
1 67576U 26016R   26040.58334491  .00132437  00000+0  68301-3 0  9995
2 67576  97.2849  99.6354 0001398 100.3948 340.5374 15.80774009  3532
